X,Y,OBJECTID,BusinessName,Address,Suite,City,State,Zip,PhoneNumber,BusinessType,OwnerName,LocationX,LocationY
3715294.8403708,555685.816237479,18113,A.U.S. HARDWARE STORE,10715 CHEF MENTEUR HWY,STE 2,NEW ORLEANS,LA,70127,504-676-1691,1125 - HARDWARE STORES,APEX UNLIMITED SERVICES,3715294.84024,555685.816025
3680907.66767547,530296.154746562,18114,AMERICAN HERITAGE GROUP,201 ST CHARLES AVE,STE 2300,NEW ORLEANS,LA,70170,,"1140 - BUILDING MATERIAL DEALERS, OTHER",AMERICAN HERITAGE GROUP LLC,3680907.66773,530296.154625
3680907.66767547,530296.154746562,18115,"ARTEMIS BUSINESS SOLUTIONS, LLC",201 ST CHARLES AVE,2300,NEW ORLEANS,LA,70130,,"1140 - BUILDING MATERIAL DEALERS, OTHER","ARTEMIS BUSINESS SOLUTIONS, LLC",3680907.66773,530296.154625
3680907.66767547,530296.154746562,18116,BUILDER PROCUREMENT SERVICES,201 ST CHARLES AVE,STE #2300,NEW ORLEANS,LA,70170,,"1140 - BUILDING MATERIAL DEALERS, OTHER","BUILDER PROCUREMENT SERVICES,LLC",3680907.66773,530296.154625
3667970.15811747,517241.780592889,18117,CABINET BY DESIGN,5201 TCHOUPITOULAS ST,,NEW ORLEANS,LA,70115,504-899-2300,"1140 - BUILDING MATERIAL DEALERS, OTHER","POCHE,BENNETTE M",3667970.15802,517241.780533
3675148.14179297,535148.342548728,18118,COLLINS LLC,2714 CANAL ST,312,NEW ORLEANS,LA,70119,,"1140 - BUILDING MATERIAL DEALERS, OTHER",COLLINS LLC,3675148.14158,535148.34247
3697326.97243522,551717.123715565,18119,D. L. SPACE,6101 CHEF MENTEUR HWY,,NEW ORLEANS,LA,70126,,"1140 - BUILDING MATERIAL DEALERS, OTHER","D L SPACE, INC",3697326.97226,551717.123733
3716880.01436581,551950.96215865,18120,DILLON BROTHERS READY MIX CONCRETE,11100 ALMONASTER AVE,,NEW ORLEANS,LA,70127,504-329-5896,"1140 - BUILDING MATERIAL DEALERS, OTHER","DILLION BROTHERS READY MIX CONCRETE, LLC",3716880.0142,551950.962134
3696196.36544447,553129.753436223,18121,EDDIES HARDWARE INC,4401 DOWNMAN RD,,NEW ORLEANS,LA,70126,504-242-8352,1125 - HARDWARE STORES,"GIROIR, EDGAR M         GIROIR, EDGAR M",3696196.36515,553129.753367
3671040.54010005,532760.939843222,18122,FASTENAL COMPANY (NEW ORLEANS),4431  EUPHROSINE ST,STE B,NEW ORLEANS,LA,70125,507-313-7407,"1140 - BUILDING MATERIAL DEALERS, OTHER",FASTENAL COMPANY,3671040.54011,532760.939716
3668402.12674172,523972.368181556,18123,FRERET HARDWARE STORE,5109 FRERET ST,,NEW ORLEANS,LA,70115,504-899-0351,1125 - HARDWARE STORES,"TORRES, FRED F",3668402.12692,523972.368252
3696196.36544447,553129.753436223,18124,GS SUPPLY LLC,4401 DOWNMAN RD,,NEW ORLEANS,LA,70126,,"1140 - BUILDING MATERIAL DEALERS, OTHER",GS SUPPLY LLC,3696196.36515,553129.753367
3674206.99702172,519365.707775474,18125,HARRYS HARDWARE INC,3535 MAGAZINE ST,,NEW ORLEANS,LA,70115,,1125 - HARDWARE STORES,"DEUTCH, SIDNEY          DEUTCH, SIDNEY",3674206.99681,519365.707767
3675695.80834855,528824.223635316,18126,HOME DEPOT  # 385(EARHART),1100 S CLAIBORNE AVE,,NEW ORLEANS,LA,70125,770-433-8211,"1140 - BUILDING MATERIAL DEALERS, OTHER","THE HOME DEPOT USA, INC",3675695.8084,528824.223488
3716665.08041246,565319.495788977,18127,"HOME DEPOT, USA INC #352(EAST)",12300 I 10 E SERVICE RD,,NEW ORLEANS,LA,70128,504-240-7071,"1140 - BUILDING MATERIAL DEALERS, OTHER","HOME DEPOT, USA",3716665.08037,565319.49565
3666638.35106981,517220.318037391,18128,LIBERTY LUMBER YARD INC,5383 TCHOUPITOULAS ST,,NEW ORLEANS,LA,70115,504-899-6341,"1140 - BUILDING MATERIAL DEALERS, OTHER",LIBERTY LUMBER YARD INC INC,3666638.35105,517220.318069
3684712.22896397,541736.654503316,18129,LOWE'S OF CENTRAL NO 1846 TAX DEPT,2501 ELYSIAN FIELDS AVE,,NEW ORLEANS,LA,70117,704-693-2738,"1140 - BUILDING MATERIAL DEALERS, OTHER","LOWE S HOME CENTERS, INC.",3684712.22882,541736.654412
3681605.30505972,533553.837863728,18130,MARY'S FRENCH QUARTER HARDWARE,732 N RAMPART ST,,NEW ORLEANS,LA,70116,504-529-4465,1125 - HARDWARE STORES,MARY'S FRENCH QUARTER HARDWARE LLC.,3681605.30504,533553.837765
3671233.31563313,539881.152964979,18131,MATTIX CABINET WORKS,415 N SOLOMON ST,,NEW ORLEANS,LA,70119-4624,504-486-7218,"1140 - BUILDING MATERIAL DEALERS, OTHER",MATTIX CABINET WORKS INC,3671233.31547,539881.152906
3684153.54208922,548360.056610808,18132,MIKE'S HARDWARE & SUPPLY,4233 ELYSIAN FIELDS AVE,,NEW ORLEANS,LA,70122,,1125 - HARDWARE STORES,"MIKE'S HARDWARE & SUPPLY,LLC",3684153.5421,548360.056658
3725139.70421122,557864.675068721,18133,NATIONAL POLYFAB CO,13120 CARRERE CT,,NEW ORLEANS,LA,70129,504-254-1025,"1140 - BUILDING MATERIAL DEALERS, OTHER",NATIONAL POYFAB CO INC,3725139.70412,557864.674971
3682053.6351998,523144.275349557,18134,PALATIAL STONE & TILE LLC,1526 RELIGIOUS ST,,NEW ORLEANS,LA,70130,504-340-2229,"1140 - BUILDING MATERIAL DEALERS, OTHER",PALATIAL STONE & TILE LLC,3682053.63503,523144.275259
3668229.32557814,534178.169948399,18135,PRE-CAST CONCRETE STEP COMPANY INC,7900 PALM ST,,NEW ORLEANS,LA,70125-1012,504-488-2639,"1140 - BUILDING MATERIAL DEALERS, OTHER","ALLEN JR, W P           ALLEN JR, W P",3668229.32545,534178.170117
3669365.73997197,554445.389584482,18136,ROCKERY ACE HARDWARE,7043 CANAL BLVD,,NEW ORLEANS,LA,70124,504-288-3522,1125 - HARDWARE STORES,LETELLIER JR DAVID L,3669365.73985,554445.38972
3678691.81679222,530187.70942539,18137,T.S.L. SHEETMETAL LLC,4437 SAINT LOUIS ST,B,NEW ORLEANS,LA,70119,504-234-8336,"1140 - BUILDING MATERIAL DEALERS, OTHER",T.S.L. SHEETMETAL LLC,3678691.8167,530187.70942
3687996.03834122,536720.956857562,18138,THE GREEN PROJECT,2831 MARAIS ST,,NEW ORLEANS,LA,70117,504-945-0240,"1140 - BUILDING MATERIAL DEALERS, OTHER",THE GREEN PROJECT,3687996.0383,536720.956615
3664561.23284872,519223.283847734,18139,"VISION WOOD, LLC",6010 MAGAZINE ST,,NEW ORLEANS,LA,70118,5044162031,"1140 - BUILDING MATERIAL DEALERS, OTHER","VISION WOOD, LLC",3664561.2329,519223.283639
